[{"OBJECT_NAME":"STARLINK-2598","OBJECT_ID":"2021-038AJ","EPOCH":"2026-03-09T22:29:54.889440","MEAN_MOTION":15.30183076,"ECCENTRICITY":0.00010855,"INCLINATION":53.16,"RA_OF_ASC_NODE":344.2151,"ARG_OF_PERICENTER":106.9837,"MEAN_ANOMALY":253.1283,"EPHEMERIS_TYPE":0,"CLASSIFICATION_TYPE":"U","NORAD_CAT_ID":48385,"ELEMENT_SET_NO":999,"REV_AT_EPOCH":26852,"BSTAR":-1.463367e-5,"MEAN_MOTION_DOT":-7.92e-6,"MEAN_MOTION_DDOT":0},{"OBJECT_NAME":"COSMOS 2251 DEB","OBJECT_ID":"1993-036BTX","EPOCH":"2026-02-28T17:34:44.973408","MEAN_MOTION":15.25753352,"ECCENTRICITY":0.00216382,"INCLINATION":73.9681,"RA_OF_ASC_NODE":229.3494,"ARG_OF_PERICENTER":13.6287,"MEAN_ANOMALY":346.5492,"EPHEMERIS_TYPE":0,"CLASSIFICATION_TYPE":"U","NORAD_CAT_ID":38487,"ELEMENT_SET_NO":999,"REV_AT_EPOCH":67986,"BSTAR":0.0024802785,"MEAN_MOTION_DOT":0.00064261,"MEAN_MOTION_DDOT":0}]
